[{"OBJECT_NAME":"STARLINK-4008","OBJECT_ID":"2022-052AA","EPOCH":"2026-03-09T23:11:29.274720","MEAN_MOTION":15.08837568,"ECCENTRICITY":0.00013888,"INCLINATION":53.2179,"RA_OF_ASC_NODE":282.8813,"ARG_OF_PERICENTER":91.5508,"MEAN_ANOMALY":268.5643,"EPHEMERIS_TYPE":0,"CLASSIFICATION_TYPE":"U","NORAD_CAT_ID":52622,"ELEMENT_SET_NO":999,"REV_AT_EPOCH":21082,"BSTAR":-1.0908495e-5,"MEAN_MOTION_DOT":-4.62e-6,"MEAN_MOTION_DDOT":0},{"OBJECT_NAME":"DELTA 1 DEB","OBJECT_ID":"1978-026BX","EPOCH":"2026-03-09T21:34:36.806304","MEAN_MOTION":15.0275865,"ECCENTRICITY":0.00371244,"INCLINATION":98.0194,"RA_OF_ASC_NODE":65.5332,"ARG_OF_PERICENTER":51.7385,"MEAN_ANOMALY":308.7169,"EPHEMERIS_TYPE":0,"CLASSIFICATION_TYPE":"U","NORAD_CAT_ID":12230,"ELEMENT_SET_NO":999,"REV_AT_EPOCH":36609,"BSTAR":0.0014350783,"MEAN_MOTION_DOT":0.00019449,"MEAN_MOTION_DDOT":0}]
